{
  "type": "FeatureCollection",
  "features": [
    {
      "type": "Feature",
      "properties": {
        "norad_id": 35902,
        "name": "COSMOS 2251 DEB",
        "group": "cosmos-2251-debris",
        "lat": -67.1345489914611,
        "lon": -170.53833677340424,
        "alt_km": 772.0907192293371,
        "timestamp": "2025-12-13T22:39:30.108264+00:00",
        "meta_object_name": "COSMOS 2251 DEB",
        "meta_object_id": "1993-036AUR",
        "meta_epoch": "2025-12-12T01:33:56.017152",
        "meta_mean_motion": 14.26898947,
        "meta_eccentricity": 0.01020569,
        "meta_inclination": 73.9828,
        "meta_ra_of_asc_node": 235.8058,
        "meta_arg_of_pericenter": 350.6999,
        "meta_mean_anomaly": 9.2255,
        "meta_ephemeris_type": 0,
        "meta_classification_type": "U",
        "meta_norad_cat_id": 35902,
        "meta_element_set_no": 999,
        "meta_rev_at_epoch": 61120,
        "meta_bstar": 0.0016300387,
        "meta_mean_motion_dot": 4.159e-05,
        "meta_mean_motion_ddot": 0,
        "tle_line1": "1 35902U 93036AUR 25346.06523168  .00004159  00000+0  16300-2 0  9991",
        "tle_line2": "2 35902  73.9828 235.8058 0102056 350.6999   9.2255 14.26898947611205"
      },
      "geometry": {
        "type": "Point",
        "coordinates": [
          -170.53833677340424,
          -67.1345489914611
        ]
      }
    },
    {
      "type": "Feature",
      "properties": {
        "norad_id": 35905,
        "name": "COSMOS 2251 DEB",
        "group": "cosmos-2251-debris",
        "lat": -11.414748888178252,
        "lon": 31.682528148407897,
        "alt_km": 580.2534943743576,
        "timestamp": "2025-12-13T22:39:30.108274+00:00",
        "meta_object_name": "COSMOS 2251 DEB",
        "meta_object_id": "1993-036AUU",
        "meta_epoch": "2025-12-12T21:46:16.127040",
        "meta_mean_motion": 14.99027682,
        "meta_eccentricity": 0.00908923,
        "meta_inclination": 74.032,
        "meta_ra_of_asc_node": 210.4725,
        "meta_arg_of_pericenter": 290.4597,
        "meta_mean_anomaly": 68.6848,
        "meta_ephemeris_type": 0,
        "meta_classification_type": "U",
        "meta_norad_cat_id": 35905,
        "meta_element_set_no": 999,
        "meta_rev_at_epoch": 88585,
        "meta_bstar": 0.00081105566,
        "meta_mean_motion_dot": 0.00010695,
        "meta_mean_motion_ddot": 0,
        "tle_line1": "1 35905U 93036AUU 25346.90713110  .00010695  00000+0  81106-3 0  9994",
        "tle_line2": "2 35905  74.0320 210.4725 0090892 290.4597  68.6848 14.99027682885857"
      },
      "geometry": {
        "type": "Point",
        "coordinates": [
          31.682528148407897,
          -11.414748888178252
        ]
      }
    },
    {
      "type": "Feature",
      "properties": {
        "norad_id": 35959,
        "name": "COSMOS 2251 DEB",
        "group": "cosmos-2251-debris",
        "lat": 41.491294643941735,
        "lon": -35.47184319317409,
        "alt_km": 759.233833528554,
        "timestamp": "2025-12-13T22:39:30.108284+00:00",
        "meta_object_name": "COSMOS 2251 DEB",
        "meta_object_id": "1993-036AUZ",
        "meta_epoch": "2025-12-13T07:23:22.047648",
        "meta_mean_motion": 14.34136813,
        "meta_eccentricity": 0.00215686,
        "meta_inclination": 74.0325,
        "meta_ra_of_asc_node": 311.0234,
        "meta_arg_of_pericenter": 31.3363,
        "meta_mean_anomaly": 328.9069,
        "meta_ephemeris_type": 0,
        "meta_classification_type": "U",
        "meta_norad_cat_id": 35959,
        "meta_element_set_no": 999,
        "meta_rev_at_epoch": 84936,
        "meta_bstar": 0.00020716976,
        "meta_mean_motion_dot": 5.55e-06,
        "meta_mean_motion_ddot": 0,
        "tle_line1": "1 35959U 93036AUZ 25347.30789407  .00000555  00000+0  20717-3 0  9995",
        "tle_line2": "2 35959  74.0325 311.0234 0021568  31.3363 328.9069 14.34136813849360"
      },
      "geometry": {
        "type": "Point",
        "coordinates": [
          -35.47184319317409,
          41.491294643941735
        ]
      }
    },
    {
      "type": "Feature",
      "properties": {
        "norad_id": 35961,
        "name": "COSMOS 2251 DEB",
        "group": "cosmos-2251-debris",
        "lat": -31.234338740071603,
        "lon": 32.13215513620246,
        "alt_km": 847.6250135940818,
        "timestamp": "2025-12-13T22:39:30.108294+00:00",
        "meta_object_name": "COSMOS 2251 DEB",
        "meta_object_id": "1993-036AVB",
        "meta_epoch": "2025-12-12T23:27:31.211712",
        "meta_mean_motion": 14.05387314,
        "meta_eccentricity": 0.01919165,
        "meta_inclination": 73.9249,
        "meta_ra_of_asc_node": 203.761,
        "meta_arg_of_pericenter": 137.1777,
        "meta_mean_anomaly": 224.4492,
        "meta_ephemeris_type": 0,
        "meta_classification_type": "U",
        "meta_norad_cat_id": 35961,
        "meta_element_set_no": 999,
        "meta_rev_at_epoch": 62685,
        "meta_bstar": 0.0013108557,
        "meta_mean_motion_dot": 2.484e-05,
        "meta_mean_motion_ddot": 0,
        "tle_line1": "1 35961U 93036AVB 25346.97744458  .00002484  00000+0  13109-2 0  9996",
        "tle_line2": "2 35961  73.9249 203.7610 0191916 137.1777 224.4492 14.05387314626859"
      },
      "geometry": {
        "type": "Point",
        "coordinates": [
          32.13215513620246,
          -31.234338740071603
        ]
      }
    },
    {
      "type": "Feature",
      "properties": {
        "norad_id": 35979,
        "name": "COSMOS 2251 DEB",
        "group": "cosmos-2251-debris",
        "lat": 37.50223828590359,
        "lon": -111.2598825849976,
        "alt_km": 607.7855938308921,
        "timestamp": "2025-12-13T22:39:30.108304+00:00",
        "meta_object_name": "COSMOS 2251 DEB",
        "meta_object_id": "1993-036AVV",
        "meta_epoch": "2025-12-12T23:45:06.669792",
        "meta_mean_motion": 14.74652089,
        "meta_eccentricity": 0.00589078,
        "meta_inclination": 74.0101,
        "meta_ra_of_asc_node": 237.8948,
        "meta_arg_of_pericenter": 10.0091,
        "meta_mean_anomaly": 4.2264,
        "meta_ephemeris_type": 0,
        "meta_classification_type": "U",
        "meta_norad_cat_id": 35979,
        "meta_element_set_no": 999,
        "meta_rev_at_epoch": 88637,
        "meta_bstar": 0.0014067844,
        "meta_mean_motion_dot": 9.634e-05,
        "meta_mean_motion_ddot": 0,
        "tle_line1": "1 35979U 93036AVV 25346.98966053  .00009634  00000+0  14068-2 0  9992",
        "tle_line2": "2 35979  74.0101 237.8948 0058907  10.0091   4.2264 14.74652089886375"
      },
      "geometry": {
        "type": "Point",
        "coordinates": [
          -111.2598825849976,
          37.50223828590359
        ]
      }
    },
    {
      "type": "Feature",
      "properties": {
        "norad_id": 35980,
        "name": "COSMOS 2251 DEB",
        "group": "cosmos-2251-debris",
        "lat": -29.382307001256617,
        "lon": -50.27860996181382,
        "alt_km": 673.4476040170039,
        "timestamp": "2025-12-13T22:39:30.108314+00:00",
        "meta_object_name": "COSMOS 2251 DEB",
        "meta_object_id": "1993-036AVW",
        "meta_epoch": "2025-12-12T16:04:36.825888",
        "meta_mean_motion": 14.59307248,
        "meta_eccentricity": 0.00536829,
        "meta_inclination": 73.9106,
        "meta_ra_of_asc_node": 122.815,
        "meta_arg_of_pericenter": 257.3132,
        "meta_mean_anomaly": 102.2028,
        "meta_ephemeris_type": 0,
        "meta_classification_type": "U",
        "meta_norad_cat_id": 35980,
        "meta_element_set_no": 999,
        "meta_rev_at_epoch": 61485,
        "meta_bstar": 0.0026199554,
        "meta_mean_motion_dot": 0.00012627,
        "meta_mean_motion_ddot": 0,
        "tle_line1": "1 35980U 93036AVW 25346.66987067  .00012627  00000+0  26200-2 0  9994",
        "tle_line2": "2 35980  73.9106 122.8150 0053682 257.3132 102.2028 14.59307248614851"
      },
      "geometry": {
        "type": "Point",
        "coordinates": [
          -50.27860996181382,
          -29.382307001256617
        ]
      }
    },
    {
      "type": "Feature",
      "properties": {
        "norad_id": 35982,
        "name": "COSMOS 2251 DEB",
        "group": "cosmos-2251-debris",
        "lat": 28.164901268943748,
        "lon": 155.8220068615355,
        "alt_km": 690.1746008446671,
        "timestamp": "2025-12-13T22:39:30.108329+00:00",
        "meta_object_name": "COSMOS 2251 DEB",
        "meta_object_id": "1993-036AVY",
        "meta_epoch": "2025-12-12T18:04:28.503552",
        "meta_mean_motion": 14.62750675,
        "meta_eccentricity": 0.0064127,
        "meta_inclination": 74.0586,
        "meta_ra_of_asc_node": 346.9035,
        "meta_arg_of_pericenter": 53.2194,
        "meta_mean_anomaly": 307.4835,
        "meta_ephemeris_type": 0,
        "meta_classification_type": "U",
        "meta_norad_cat_id": 35982,
        "meta_element_set_no": 999,
        "meta_rev_at_epoch": 86166,
        "meta_bstar": 0.00087981481,
        "meta_mean_motion_dot": 4.592e-05,
        "meta_mean_motion_ddot": 0,
        "tle_line1": "1 35982U 93036AVY 25346.75310768  .00004592  00000+0  87981-3 0  9990",
        "tle_line2": "2 35982  74.0586 346.9035 0064127  53.2194 307.4835 14.62750675861663"
      },
      "geometry": {
        "type": "Point",
        "coordinates": [
          155.8220068615355,
          28.164901268943748
        ]
      }
    }
  ]
}